SOYUZ-MS 26             
1 61043U 24162A   24273.85979443  .00027889  00000+0  49605-3 0  9996
2 61043  51.6373 156.9300 0007109  44.4443 315.7115 15.49913497472698
GEESAT-3 08             
1 61018U 24159H   24274.17911453  .00019636  00000+0  15901-2 0  9999
2 61018  50.0043 124.2338 0017215  69.6412 290.6380 14.99564055  3635
GEESAT-3 09             
1 61019U 24159J   24274.11583547  .00015417  00000+0  13482-2 0  9998
2 61019  49.9954 124.5522 0011808 244.8427 115.1293 14.96805420  3621
GEESAT-3 10             
1 61020U 24159K   24274.21944530  .00012671  00000+0  12513-2 0  9997
2 61020  49.9984 124.4742 0030741 296.6476  63.1318 14.91861619  3644
SPACEMOBILE-003         
1 61045U 24163A   24273.82328720  .00005854  00000+0  30641-3 0  9990
2 61045  52.9762 302.0507 0013186  15.1155 345.0229 15.17147818  2654
SPACEMOBILE-005         
1 61046U 24163B   24273.82065690  .00005724  00000+0  29804-3 0  9990
2 61046  52.9771 302.0426 0013750  19.3931 340.7582 15.17375500  2644
SPACEMOBILE-001         
1 61047U 24163C   24273.82013321  .00005809  00000+0  30183-3 0  9991
2 61047  52.9734 302.0234 0013513  20.0875 340.0646 15.17420867  2645
SPACEMOBILE-002         
1 61048U 24163D   24273.81710903  .00005665  00000+0  29265-3 0  9990
2 61048  52.9763 302.0108 0012818  23.5647 336.5930 15.17683244  2646
SPACEMOBILE-004         
1 61049U 24163E   24273.81513249  .00005550  00000+0  28562-3 0  9997
2 61049  52.9760 302.0051 0013337  28.0979 332.0731 15.17855023  2642
STARLINK-11286 [DTC]    
1 61050U 24164A   24274.15613893  .00007065  00000+0  47150-4 0  9992
2 61050  53.1588  23.0187 0000852  77.5294 282.5822 15.76717582  3892
STARLINK-11252 [DTC]    
1 61051U 24164B   24274.15124525  .00006505  00000+0  43685-4 0  9999
2 61051  53.1600  22.9856 0001261 133.1418 226.9708 15.76744081  3801
STARLINK-11284 [DTC]    
1 61052U 24164C   24274.14636959  .00103854  00000+0  62971-3 0  9991
2 61052  53.1599  22.9541 0002188  33.4482 326.6677 15.76766891  2863
STARLINK-11230 [DTC]    
1 61053U 24164D   24274.14146653  .00839455  00000+0  45738-2 0  9993
2 61053  53.1585  22.9197 0001070  53.2679 306.8440 15.77075888  3907
STARLINK-11294 [DTC]    
1 61054U 24164E   24273.91667824 -.00051229  00000+0 -31068-3 0  9995
2 61054  53.1584  23.9844 0001109  81.7170 109.3173 15.76743828  3827
