[
    {
    "OBJECT_NAME": "GEESAT-3 08",
    "OBJECT_ID": "2024-159H",
    "EPOCH": "2024-09-30T04:17:55.495392",
    "MEAN_MOTION": 14.99564055,
    "ECCENTRICITY": 0.0017215,
    "INCLINATION": 50.0043,
    "RA_OF_ASC_NODE": 124.2338,
    "ARG_OF_PERICENTER": 69.6412,
    "MEAN_ANOMALY": 290.638,
    "EPHEMERIS_TYPE": 0,
    "CLASSIFICATION_TYPE": "U",
    "NORAD_CAT_ID": 61018,
    "ELEMENT_SET_NO": 999,
    "REV_AT_EPOCH": 363,
    "BSTAR": 0.0015901,
    "MEAN_MOTION_DOT": 0.00019636,
    "MEAN_MOTION_DDOT": 0
    },
    {
    "OBJECT_NAME": "GEESAT-3 09",
    "OBJECT_ID": "2024-159J",
    "EPOCH": "2024-09-30T02:46:48.184608",
    "MEAN_MOTION": 14.9680542,
    "ECCENTRICITY": 0.0011808,
    "INCLINATION": 49.9954,
    "RA_OF_ASC_NODE": 124.5522,
    "ARG_OF_PERICENTER": 244.8427,
    "MEAN_ANOMALY": 115.1293,
    "EPHEMERIS_TYPE": 0,
    "CLASSIFICATION_TYPE": "U",
    "NORAD_CAT_ID": 61019,
    "ELEMENT_SET_NO": 999,
    "REV_AT_EPOCH": 362,
    "BSTAR": 0.0013482,
    "MEAN_MOTION_DOT": 0.00015417,
    "MEAN_MOTION_DDOT": 0
    },
    {
    "OBJECT_NAME": "GEESAT-3 10",
    "OBJECT_ID": "2024-159K",
    "EPOCH": "2024-09-30T05:16:00.073920",
    "MEAN_MOTION": 14.91861619,
    "ECCENTRICITY": 0.0030741,
    "INCLINATION": 49.9984,
    "RA_OF_ASC_NODE": 124.4742,
    "ARG_OF_PERICENTER": 296.6476,
    "MEAN_ANOMALY": 63.1318,
    "EPHEMERIS_TYPE": 0,
    "CLASSIFICATION_TYPE": "U",
    "NORAD_CAT_ID": 61020,
    "ELEMENT_SET_NO": 999,
    "REV_AT_EPOCH": 364,
    "BSTAR": 0.0012513,
    "MEAN_MOTION_DOT": 0.00012671,
    "MEAN_MOTION_DDOT": 0
    },
    {
    "OBJECT_NAME": "SOYUZ-MS 26",
    "OBJECT_ID": "2024-162A",
    "EPOCH": "2024-09-29T20:38:06.238752",
    "MEAN_MOTION": 15.49913497,
    "ECCENTRICITY": 0.0007109,
    "INCLINATION": 51.6373,
    "RA_OF_ASC_NODE": 156.93,
    "ARG_OF_PERICENTER": 44.4443,
    "MEAN_ANOMALY": 315.7115,
    "EPHEMERIS_TYPE": 0,
    "CLASSIFICATION_TYPE": "U",
    "NORAD_CAT_ID": 61043,
    "ELEMENT_SET_NO": 999,
    "REV_AT_EPOCH": 47269,
    "BSTAR": 0.00049605,
    "MEAN_MOTION_DOT": 0.00027889,
    "MEAN_MOTION_DDOT": 0
    },
    {
    "OBJECT_NAME": "SPACEMOBILE-003",
    "OBJECT_ID": "2024-163A",
    "EPOCH": "2024-09-29T19:45:32.014080",
    "MEAN_MOTION": 15.17147818,
    "ECCENTRICITY": 0.0013186,
    "INCLINATION": 52.9762,
    "RA_OF_ASC_NODE": 302.0507,
    "ARG_OF_PERICENTER": 15.1155,
    "MEAN_ANOMALY": 345.0229,
    "EPHEMERIS_TYPE": 0,
    "CLASSIFICATION_TYPE": "U",
    "NORAD_CAT_ID": 61045,
    "ELEMENT_SET_NO": 999,
    "REV_AT_EPOCH": 265,
    "BSTAR": 0.00030641,
    "MEAN_MOTION_DOT": 0.00005854,
    "MEAN_MOTION_DDOT": 0
    },
    {
    "OBJECT_NAME": "SPACEMOBILE-005",
    "OBJECT_ID": "2024-163B",
    "EPOCH": "2024-09-29T19:41:44.756160",
    "MEAN_MOTION": 15.173755,
    "ECCENTRICITY": 0.001375,
    "INCLINATION": 52.9771,
    "RA_OF_ASC_NODE": 302.0426,
    "ARG_OF_PERICENTER": 19.3931,
    "MEAN_ANOMALY": 340.7582,
    "EPHEMERIS_TYPE": 0,
    "CLASSIFICATION_TYPE": "U",
    "NORAD_CAT_ID": 61046,
    "ELEMENT_SET_NO": 999,
    "REV_AT_EPOCH": 264,
    "BSTAR": 0.00029804,
    "MEAN_MOTION_DOT": 0.00005724,
    "MEAN_MOTION_DDOT": 0
    },
    {
    "OBJECT_NAME": "SPACEMOBILE-001",
    "OBJECT_ID": "2024-163C",
    "EPOCH": "2024-09-29T19:40:59.509344",
    "MEAN_MOTION": 15.17420867,
    "ECCENTRICITY": 0.0013513,
    "INCLINATION": 52.9734,
    "RA_OF_ASC_NODE": 302.0234,
    "ARG_OF_PERICENTER": 20.0875,
    "MEAN_ANOMALY": 340.0646,
    "EPHEMERIS_TYPE": 0,
    "CLASSIFICATION_TYPE": "U",
    "NORAD_CAT_ID": 61047,
    "ELEMENT_SET_NO": 999,
    "REV_AT_EPOCH": 264,
    "BSTAR": 0.00030183,
    "MEAN_MOTION_DOT": 0.00005809,
    "MEAN_MOTION_DDOT": 0
    },
    {
    "OBJECT_NAME": "SPACEMOBILE-002",
    "OBJECT_ID": "2024-163D",
    "EPOCH": "2024-09-29T19:36:38.220192",
    "MEAN_MOTION": 15.17683244,
    "ECCENTRICITY": 0.0012818,
    "INCLINATION": 52.9763,
    "RA_OF_ASC_NODE": 302.0108,
    "ARG_OF_PERICENTER": 23.5647,
    "MEAN_ANOMALY": 336.593,
    "EPHEMERIS_TYPE": 0,
    "CLASSIFICATION_TYPE": "U",
    "NORAD_CAT_ID": 61048,
    "ELEMENT_SET_NO": 999,
    "REV_AT_EPOCH": 264,
    "BSTAR": 0.00029265,
    "MEAN_MOTION_DOT": 0.00005665,
    "MEAN_MOTION_DDOT": 0
    },
    {
    "OBJECT_NAME": "SPACEMOBILE-004",
    "OBJECT_ID": "2024-163E",
    "EPOCH": "2024-09-29T19:33:47.447136",
    "MEAN_MOTION": 15.17855023,
    "ECCENTRICITY": 0.0013337,
    "INCLINATION": 52.976,
    "RA_OF_ASC_NODE": 302.0051,
    "ARG_OF_PERICENTER": 28.0979,
    "MEAN_ANOMALY": 332.0731,
    "EPHEMERIS_TYPE": 0,
    "CLASSIFICATION_TYPE": "U",
    "NORAD_CAT_ID": 61049,
    "ELEMENT_SET_NO": 999,
    "REV_AT_EPOCH": 264,
    "BSTAR": 0.00028562,
    "MEAN_MOTION_DOT": 0.0000555,
    "MEAN_MOTION_DDOT": 0
    },
    {
    "OBJECT_NAME": "STARLINK-11286 [DTC]",
    "OBJECT_ID": "2024-164A",
    "EPOCH": "2024-09-30T03:44:50.403552",
    "MEAN_MOTION": 15.76717582,
    "ECCENTRICITY": 0.0000852,
    "INCLINATION": 53.1588,
    "RA_OF_ASC_NODE": 23.0187,
    "ARG_OF_PERICENTER": 77.5294,
    "MEAN_ANOMALY": 282.5822,
    "EPHEMERIS_TYPE": 0,
    "CLASSIFICATION_TYPE": "U",
    "NORAD_CAT_ID": 61050,
    "ELEMENT_SET_NO": 999,
    "REV_AT_EPOCH": 389,
    "BSTAR": 0.00004715,
    "MEAN_MOTION_DOT": 0.00007065,
    "MEAN_MOTION_DDOT": 0
    },
    {
    "OBJECT_NAME": "STARLINK-11252 [DTC]",
    "OBJECT_ID": "2024-164B",
    "EPOCH": "2024-09-30T03:37:47.589600",
    "MEAN_MOTION": 15.76744081,
    "ECCENTRICITY": 0.0001261,
    "INCLINATION": 53.16,
    "RA_OF_ASC_NODE": 22.9856,
    "ARG_OF_PERICENTER": 133.1418,
    "MEAN_ANOMALY": 226.9708,
    "EPHEMERIS_TYPE": 0,
    "CLASSIFICATION_TYPE": "U",
    "NORAD_CAT_ID": 61051,
    "ELEMENT_SET_NO": 999,
    "REV_AT_EPOCH": 380,
    "BSTAR": 0.000043685,
    "MEAN_MOTION_DOT": 0.00006505,
    "MEAN_MOTION_DDOT": 0
    },
    {
    "OBJECT_NAME": "STARLINK-11284 [DTC]",
    "OBJECT_ID": "2024-164C",
    "EPOCH": "2024-09-30T03:30:46.332576",
    "MEAN_MOTION": 15.76766891,
    "ECCENTRICITY": 0.0002188,
    "INCLINATION": 53.1599,
    "RA_OF_ASC_NODE": 22.9541,
    "ARG_OF_PERICENTER": 33.4482,
    "MEAN_ANOMALY": 326.6677,
    "EPHEMERIS_TYPE": 0,
    "CLASSIFICATION_TYPE": "U",
    "NORAD_CAT_ID": 61052,
    "ELEMENT_SET_NO": 999,
    "REV_AT_EPOCH": 286,
    "BSTAR": 0.00062971,
    "MEAN_MOTION_DOT": 0.00103854,
    "MEAN_MOTION_DDOT": 0
    },
    {
    "OBJECT_NAME": "STARLINK-11230 [DTC]",
    "OBJECT_ID": "2024-164D",
    "EPOCH": "2024-09-30T03:23:42.708192",
    "MEAN_MOTION": 15.77075888,
    "ECCENTRICITY": 0.000107,
    "INCLINATION": 53.1585,
    "RA_OF_ASC_NODE": 22.9197,
    "ARG_OF_PERICENTER": 53.2679,
    "MEAN_ANOMALY": 306.844,
    "EPHEMERIS_TYPE": 0,
    "CLASSIFICATION_TYPE": "U",
    "NORAD_CAT_ID": 61053,
    "ELEMENT_SET_NO": 999,
    "REV_AT_EPOCH": 390,
    "BSTAR": 0.0045738,
    "MEAN_MOTION_DOT": 0.00839455,
    "MEAN_MOTION_DDOT": 0
    },
    {
    "OBJECT_NAME": "STARLINK-11294 [DTC]",
    "OBJECT_ID": "2024-164E",
    "EPOCH": "2024-09-29T22:00:00.999936",
    "MEAN_MOTION": 15.76743828,
    "ECCENTRICITY": 0.0001109,
    "INCLINATION": 53.1584,
    "RA_OF_ASC_NODE": 23.9844,
    "ARG_OF_PERICENTER": 81.717,
    "MEAN_ANOMALY": 109.3173,
    "EPHEMERIS_TYPE": 0,
    "CLASSIFICATION_TYPE": "U",
    "NORAD_CAT_ID": 61054,
    "ELEMENT_SET_NO": 999,
    "REV_AT_EPOCH": 382,
    "BSTAR": -0.00031068,
    "MEAN_MOTION_DOT": -0.00051229,
    "MEAN_MOTION_DDOT": 0
    }
    ]
